TITAN 4B R/B            
1 26474U 00047B   25300.79476065  .00006337  00000+0  40726-3 0  9998
2 26474  67.9909  53.8423 0043767 197.2412 162.7254 15.08262711372869
ENVISAT                 
1 27386U 02009A   25300.86703838  .00000226  00000+0  87103-4 0  9992
2 27386  98.3520 252.7890 0001334  85.7226 298.1660 14.38973483240074
IDEFIX & ARIANE 42P R/B 
1 27422U 02021B   25300.85236419  .00000466  00000+0  19405-3 0  9997
2 27422  98.5712 236.1568 0010990 214.6767 145.3700 14.30899606225021
AQUA                    
1 27424U 02022A   25300.88765618  .00001646  00000+0  34065-3 0  9991
2 27424  98.3965 261.0442 0001434  52.3581 332.3585 14.61642781249336
CZ-4B R/B               
1 27432U 02024C   25300.61715193  .00000064  00000+0  55977-4 0  9995
2 27432  98.9069 349.5334 0050804  41.8316 120.5568 14.14513992210427
MIDORI II (ADEOS-II)    
1 27597U 02056A   25300.85898160  .00000462  00000+0  19994-3 0  9994
2 27597  98.7557 253.5934 0001914  55.7070 304.4293 14.29157818191320
H-2A R/B                
1 27601U 02056E   25300.89644920  .00000439  00000+0  16877-3 0  9998
2 27601  98.2991 261.4967 0069852 196.4188 222.2628 14.33627494195088
CZ-4B R/B               
1 28059U 03049C   25300.86048406  .00000701  00000+0  17299-3 0  9994
2 28059  98.6755 285.6992 0047117 277.3885  82.1958 14.54843610167280
CZ-2C R/B               
1 28222U 04012C   25300.81173963  .00034425  00000+0  57724-3 0  9996
2 28222  97.7498 349.7693 0020971  79.8409 280.5207 15.51505175183594
SL-16 R/B               
1 28353U 04021B   25300.86980184 -.00000269  00000+0 -11511-3 0  9992
2 28353  70.9988 151.2245 0007325 250.7490 109.2840 14.14571866104055
CZ-4B R/B               
1 28415U 04035C   25300.03000447  .00009810  00000+0  37375-3 0  9995
2 28415  97.3671 331.0169 0035972  82.7487 277.7838 15.26300959159502
CZ-2C R/B               
1 28480U 04046B   25300.74886404  .00000224  00000+0  98546-4 0  9990
2 28480  98.1942 218.9961 0139302 187.5170 172.3925 14.26910642 89540
